[{"OBJECT_NAME":"SL-14 R/B","OBJECT_ID":"1986-006B","EPOCH":"2026-03-18T00:00:10.072512","MEAN_MOTION":14.86826968,"ECCENTRICITY":0.0075192,"INCLINATION":82.5237,"RA_OF_ASC_NODE":251.9133,"ARG_OF_PERICENTER":244.7186,"MEAN_ANOMALY":114.6227,"EPHEMERIS_TYPE":0,"CLASSIFICATION_TYPE":"U","NORAD_CAT_ID":16496,"ELEMENT_SET_NO":999,"REV_AT_EPOCH":15044,"BSTAR":6.8131952e-5,"MEAN_MOTION_DOT":6.65e-6,"MEAN_MOTION_DDOT":0},{"OBJECT_NAME":"COSMOS 1743","OBJECT_ID":"1986-034A","EPOCH":"2026-03-17T23:41:10.083264","MEAN_MOTION":15.59182942,"ECCENTRICITY":0.00020954,"INCLINATION":82.5281,"RA_OF_ASC_NODE":65.1165,"ARG_OF_PERICENTER":218.2306,"MEAN_ANOMALY":141.8802,"EPHEMERIS_TYPE":0,"CLASSIFICATION_TYPE":"U","NORAD_CAT_ID":16719,"ELEMENT_SET_NO":999,"REV_AT_EPOCH":18154,"BSTAR":0.00039130843,"MEAN_MOTION_DOT":0.00030736,"MEAN_MOTION_DDOT":0},{"OBJECT_NAME":"SL-14 R/B","OBJECT_ID":"1986-046B","EPOCH":"2026-03-18T02:12:26.868960","MEAN_MOTION":14.85598529,"ECCENTRICITY":0.00225996,"INCLINATION":82.4786,"RA_OF_ASC_NODE":72.2399,"ARG_OF_PERICENTER":196.5632,"MEAN_ANOMALY":163.4849,"EPHEMERIS_TYPE":0,"CLASSIFICATION_TYPE":"U","NORAD_CAT_ID":16792,"ELEMENT_SET_NO":999,"REV_AT_EPOCH":12765,"BSTAR":4.5462007e-5,"MEAN_MOTION_DOT":4.19e-6,"MEAN_MOTION_DDOT":0},{"OBJECT_NAME":"SL-14 R/B","OBJECT_ID":"1986-055B","EPOCH":"2026-03-18T03:42:09.656352","MEAN_MOTION":14.85650352,"ECCENTRICITY":0.00175951,"INCLINATION":82.5185,"RA_OF_ASC_NODE":118.7171,"ARG_OF_PERICENTER":307.1009,"MEAN_ANOMALY":112.5107,"EPHEMERIS_TYPE":0,"CLASSIFICATION_TYPE":"U","NORAD_CAT_ID":16882,"ELEMENT_SET_NO":999,"REV_AT_EPOCH":12062,"BSTAR":4.7008799e-5,"MEAN_MOTION_DOT":4.32e-6,"MEAN_MOTION_DDOT":0},{"OBJECT_NAME":"AJISAI (EGS)","OBJECT_ID":"1986-061A","EPOCH":"2026-03-18T07:08:22.695360","MEAN_MOTION":12.44515707,"ECCENTRICITY":0.00112968,"INCLINATION":50.0089,"RA_OF_ASC_NODE":66.8774,"ARG_OF_PERICENTER":309.2167,"MEAN_ANOMALY":71.4798,"EPHEMERIS_TYPE":0,"CLASSIFICATION_TYPE":"U","NORAD_CAT_ID":16908,"ELEMENT_SET_NO":999,"REV_AT_EPOCH":46907,"BSTAR":1.437729e-6,"MEAN_MOTION_DOT":-9.7e-7,"MEAN_MOTION_DDOT":0},{"OBJECT_NAME":"SL-14 R/B","OBJECT_ID":"1987-024B","EPOCH":"2026-03-18T06:10:02.476704","MEAN_MOTION":14.86140339,"ECCENTRICITY":0.00170017,"INCLINATION":82.5244,"RA_OF_ASC_NODE":84.7088,"ARG_OF_PERICENTER":229.207,"MEAN_ANOMALY":130.7672,"EPHEMERIS_TYPE":0,"CLASSIFICATION_TYPE":"U","NORAD_CAT_ID":17567,"ELEMENT_SET_NO":999,"REV_AT_EPOCH":8940,"BSTAR":4.8710127e-5,"MEAN_MOTION_DOT":4.52e-6,"MEAN_MOTION_DDOT":0},{"OBJECT_NAME":"COSMOS 1833","OBJECT_ID":"1987-027A","EPOCH":"2026-03-18T01:43:30.609984","MEAN_MOTION":14.13052219,"ECCENTRICITY":0.00238375,"INCLINATION":70.9202,"RA_OF_ASC_NODE":308.402,"ARG_OF_PERICENTER":202.5392,"MEAN_ANOMALY":157.4684,"EPHEMERIS_TYPE":0,"CLASSIFICATION_TYPE":"U","NORAD_CAT_ID":17589,"ELEMENT_SET_NO":999,"REV_AT_EPOCH":1150,"BSTAR":-8.9952426e-5,"MEAN_MOTION_DOT":-2.17e-6,"MEAN_MOTION_DDOT":0},{"OBJECT_NAME":"SL-16 R/B","OBJECT_ID":"1987-027B","EPOCH":"2026-03-18T05:35:31.498944","MEAN_MOTION":14.17166772,"ECCENTRICITY":0.0003109,"INCLINATION":70.9991,"RA_OF_ASC_NODE":258.4901,"ARG_OF_PERICENTER":123.2145,"MEAN_ANOMALY":236.9277,"EPHEMERIS_TYPE":0,"CLASSIFICATION_TYPE":"U","NORAD_CAT_ID":17590,"ELEMENT_SET_NO":999,"REV_AT_EPOCH":1655,"BSTAR":-1.229347e-6,"MEAN_MOTION_DOT":-5.0e-7,"MEAN_MOTION_DDOT":0},{"OBJECT_NAME":"SL-14 R/B","OBJECT_ID":"1987-038B","EPOCH":"2026-03-18T01:18:07.926624","MEAN_MOTION":14.85376559,"ECCENTRICITY":0.00203338,"INCLINATION":82.4988,"RA_OF_ASC_NODE":288.9266,"ARG_OF_PERICENTER":133.9003,"MEAN_ANOMALY":226.3896,"EPHEMERIS_TYPE":0,"CLASSIFICATION_TYPE":"U","NORAD_CAT_ID":17912,"ELEMENT_SET_NO":999,"REV_AT_EPOCH":8047,"BSTAR":4.3831993e-5,"MEAN_MOTION_DOT":4.03e-6,"MEAN_MOTION_DDOT":0},{"OBJECT_NAME":"COSMOS 1844","OBJECT_ID":"1987-041A","EPOCH":"2026-03-18T02:21:20.444256","MEAN_MOTION":14.14551154,"ECCENTRICITY":0.0030447,"INCLINATION":70.9008,"RA_OF_ASC_NODE":16.4401,"ARG_OF_PERICENTER":5.5792,"MEAN_ANOMALY":354.5663,"EPHEMERIS_TYPE":0,"CLASSIFICATION_TYPE":"U","NORAD_CAT_ID":17973,"ELEMENT_SET_NO":999,"REV_AT_EPOCH":477,"BSTAR":2.0536156e-5,"MEAN_MOTION_DOT":-9.0e-8,"MEAN_MOTION_DDOT":0},{"OBJECT_NAME":"SL-14 R/B","OBJECT_ID":"1987-055B","EPOCH":"2026-03-18T02:19:43.225248","MEAN_MOTION":14.85638719,"ECCENTRICITY":0.00203766,"INCLINATION":82.5027,"RA_OF_ASC_NODE":341.1098,"ARG_OF_PERICENTER":350.3576,"MEAN_ANOMALY":9.7245,"EPHEMERIS_TYPE":0,"CLASSIFICATION_TYPE":"U","NORAD_CAT_ID":18153,"ELEMENT_SET_NO":999,"REV_AT_EPOCH":7118,"BSTAR":5.0544201e-5,"MEAN_MOTION_DOT":4.63e-6,"MEAN_MOTION_DDOT":0},{"OBJECT_NAME":"COSMOS 1867","OBJECT_ID":"1987-060A","EPOCH":"2026-03-17T23:08:42.129600","MEAN_MOTION":14.31504267,"ECCENTRICITY":0.00146036,"INCLINATION":65.0098,"RA_OF_ASC_NODE":283.5317,"ARG_OF_PERICENTER":279.142,"MEAN_ANOMALY":80.8012,"EPHEMERIS_TYPE":0,"CLASSIFICATION_TYPE":"U","NORAD_CAT_ID":18187,"ELEMENT_SET_NO":999,"REV_AT_EPOCH":2112,"BSTAR":2.2697372e-5,"MEAN_MOTION_DOT":-4.0e-7,"MEAN_MOTION_DDOT":0},{"OBJECT_NAME":"SL-14 R/B","OBJECT_ID":"1988-001B","EPOCH":"2026-03-18T07:04:49.366848","MEAN_MOTION":14.85538013,"ECCENTRICITY":0.00174169,"INCLINATION":82.516,"RA_OF_ASC_NODE":187.2687,"ARG_OF_PERICENTER":205.6283,"MEAN_ANOMALY":154.4072,"EPHEMERIS_TYPE":0,"CLASSIFICATION_TYPE":"U","NORAD_CAT_ID":18749,"ELEMENT_SET_NO":999,"REV_AT_EPOCH":4330,"BSTAR":5.63629e-5,"MEAN_MOTION_DOT":5.12e-6,"MEAN_MOTION_DDOT":0},{"OBJECT_NAME":"COSMOS 1933","OBJECT_ID":"1988-020A","EPOCH":"2026-03-18T03:52:39.558144","MEAN_MOTION":15.18062757,"ECCENTRICITY":0.00045344,"INCLINATION":82.5101,"RA_OF_ASC_NODE":242.5275,"ARG_OF_PERICENTER":154.303,"MEAN_ANOMALY":205.843,"EPHEMERIS_TYPE":0,"CLASSIFICATION_TYPE":"U","NORAD_CAT_ID":18958,"ELEMENT_SET_NO":999,"REV_AT_EPOCH":5151,"BSTAR":0.00016242934,"MEAN_MOTION_DOT":3.338e-5,"MEAN_MOTION_DDOT":0},{"OBJECT_NAME":"SL-3 R/B","OBJECT_ID":"1988-032B","EPOCH":"2026-03-18T05:24:03.324672","MEAN_MOTION":15.20005937,"ECCENTRICITY":0.0025188,"INCLINATION":97.5198,"RA_OF_ASC_NODE":60.4463,"ARG_OF_PERICENTER":200.3426,"MEAN_ANOMALY":159.6808,"EPHEMERIS_TYPE":0,"CLASSIFICATION_TYPE":"U","NORAD_CAT_ID":19046,"ELEMENT_SET_NO":999,"REV_AT_EPOCH":5340,"BSTAR":0.00020592394,"MEAN_MOTION_DOT":4.401e-5,"MEAN_MOTION_DDOT":0},{"OBJECT_NAME":"SL-16 R/B","OBJECT_ID":"1988-039B","EPOCH":"2026-03-18T07:04:39.016128","MEAN_MOTION":14.19617718,"ECCENTRICITY":0.00231975,"INCLINATION":71.0147,"RA_OF_ASC_NODE":50.3501,"ARG_OF_PERICENTER":321.8864,"MEAN_ANOMALY":38.0619,"EPHEMERIS_TYPE":0,"CLASSIFICATION_TYPE":"U","NORAD_CAT_ID":19120,"ELEMENT_SET_NO":999,"REV_AT_EPOCH":95960,"BSTAR":2.8041912e-5,"MEAN_MOTION_DOT":1.1e-7,"MEAN_MOTION_DDOT":0},{"OBJECT_NAME":"COSMOS 1953","OBJECT_ID":"1988-050A","EPOCH":"2026-03-18T03:15:16.631424","MEAN_MOTION":15.28664534,"ECCENTRICITY":0.00126646,"INCLINATION":82.5101,"RA_OF_ASC_NODE":149.7532,"ARG_OF_PERICENTER":96.0654,"MEAN_ANOMALY":264.2029,"EPHEMERIS_TYPE":0,"CLASSIFICATION_TYPE":"U","NORAD_CAT_ID":19210,"ELEMENT_SET_NO":999,"REV_AT_EPOCH":3907,"BSTAR":0.00020649852,"MEAN_MOTION_DOT":5.801e-5,"MEAN_MOTION_DDOT":0}]
